start=new Date('2022-08-10T00:00:00.000Z').valueOf();
sats=[{"OBJECT_TYPE":"PAYLOAD","DECAY_DATE":null,"PERIOD":"95.438","BSTAR":"-0.00102590000000","MEAN_ANOMALY":"67.7026","MEAN_MOTION_DDOT":"0.0000000000000","APOAPSIS":"541.011","REF_FRAME":"TEME","PERIAPSIS":"538.559","RA_OF_ASC_NODE":"149.9364","CENTER_NAME":"EARTH","ECCENTRICITY":"0.00017720","EPHEMERIS_TYPE":"0","COUNTRY_CODE":"US","OBJECT_ID":"2022-025AF","CLASSIFICATION_TYPE":"U","GP_ID":"209931134","FILE":"3533123","TIME_SYSTEM":"UTC","MEAN_MOTION_DOT":"-0.00016573","RCS_SIZE":"LARGE","SITE":"AFETR","REV_AT_EPOCH":"130","INCLINATION":"53.2173","NORAD_CAT_ID":"51985","TLE_LINE1":"1 51985U 22025AF  22221.91667824 -.00016573  00000-0 -10259-2 0  9994","EPOCH":"2022-08-09T22:00:00.999936","ELEMENT_SET_NO":"999","LAUNCH_DATE":"2022-03-09","TLE_LINE2":"2 51985  53.2173 149.9364 0001772  62.3594  67.7026 15.08827058  1309","SEMIMAJOR_AXIS":"6917.920","OBJECT_NAME":"STARLINK-3651","MEAN_MOTION":"15.08827058","MEAN_ELEMENT_THEORY":"SGP4","ARG_OF_PERICENTER":"62.3594"},{"NORAD_CAT_ID":"51986","TLE_LINE1":"1 51986U 22025AG  22221.91667824 -.00045053  00000-0 -28309-2 0  9995","EPOCH":"2022-08-09T22:00:00.999936","ELEMENT_SET_NO":"999","LAUNCH_DATE":"2022-03-09","TLE_LINE2":"2 51986  53.2172 149.9408 0001733  59.4300 270.6258 15.08833290  1304","SEMIMAJOR_AXIS":"6917.901","OBJECT_NAME":"STARLINK-3645","MEAN_MOTION":"15.08833290","MEAN_ELEMENT_THEORY":"SGP4","ARG_OF_PERICENTER":"59.4300","TIME_SYSTEM":"UTC","MEAN_MOTION_DOT":"-0.00045053","RCS_SIZE":"LARGE","SITE":"AFETR","REV_AT_EPOCH":"130","INCLINATION":"53.2172","RA_OF_ASC_NODE":"149.9408","CENTER_NAME":"EARTH","ECCENTRICITY":"0.00017330","COUNTRY_CODE":"US","EPHEMERIS_TYPE":"0","OBJECT_ID":"2022-025AG","CLASSIFICATION_TYPE":"U","GP_ID":"209930388","FILE":"3533123","OBJECT_TYPE":"PAYLOAD","DECAY_DATE":null,"PERIOD":"95.438","BSTAR":"-0.00283090000000","MEAN_ANOMALY":"270.6258","MEAN_MOTION_DDOT":"0.0000000000000","APOAPSIS":"540.965","REF_FRAME":"TEME","PERIAPSIS":"538.567"},{"RA_OF_ASC_NODE":"149.9361","CENTER_NAME":"EARTH","ECCENTRICITY":"0.00020450","GP_ID":"209930638","CLASSIFICATION_TYPE":"U","EPHEMERIS_TYPE":"0","COUNTRY_CODE":"US","OBJECT_ID":"2022-025AH","FILE":"3533123","DECAY_DATE":null,"OBJECT_TYPE":"PAYLOAD","PERIOD":"95.438","MEAN_MOTION_DDOT":"0.0000000000000","BSTAR":"-0.00306570000000","MEAN_ANOMALY":"187.2450","PERIAPSIS":"538.342","APOAPSIS":"541.172","REF_FRAME":"TEME","NORAD_CAT_ID":"51987","TLE_LINE1":"1 51987U 22025AH  22221.91667824 -.00048745  00000-0 -30657-2 0  9996","EPOCH":"2022-08-09T22:00:00.999936","ELEMENT_SET_NO":"999","LAUNCH_DATE":"2022-03-09","TLE_LINE2":"2 51987  53.2168 149.9361 0002045  62.8173 187.2450 15.08836177  1305","SEMIMAJOR_AXIS":"6917.892","ARG_OF_PERICENTER":"62.8173","OBJECT_NAME":"STARLINK-3644","MEAN_MOTION":"15.08836177","MEAN_ELEMENT_THEORY":"SGP4","MEAN_MOTION_DOT":"-0.00048745","TIME_SYSTEM":"UTC","SITE":"AFETR","RCS_SIZE":"LARGE","REV_AT_EPOCH":"130","INCLINATION":"53.2168"},{"PERIAPSIS":"538.564","REF_FRAME":"TEME","APOAPSIS":"540.987","MEAN_MOTION_DDOT":"0.0000000000000","MEAN_ANOMALY":"287.7481","BSTAR":"-0.00269870000000","PERIOD":"95.438","DECAY_DATE":null,"OBJECT_TYPE":"PAYLOAD","FILE":"3533123","GP_ID":"209931390","CLASSIFICATION_TYPE":"U","COUNTRY_CODE":"US","EPHEMERIS_TYPE":"0","OBJECT_ID":"2022-025AJ","ECCENTRICITY":"0.00017510","CENTER_NAME":"EARTH","RA_OF_ASC_NODE":"149.9386","INCLINATION":"53.2171","REV_AT_EPOCH":"130","SITE":"AFETR","RCS_SIZE":"LARGE","MEAN_MOTION_DOT":"-0.00042971","TIME_SYSTEM":"UTC","ARG_OF_PERICENTER":"62.3102","MEAN_ELEMENT_THEORY":"SGP4","MEAN_MOTION":"15.08830208","OBJECT_NAME":"STARLINK-3640","SEMIMAJOR_AXIS":"6917.910","TLE_LINE2":"2 51988  53.2171 149.9386 0001751  62.3102 287.7481 15.08830208  1306","LAUNCH_DATE":"2022-03-09","ELEMENT_SET_NO":"999","EPOCH":"2022-08-09T22:00:00.999936","NORAD_CAT_ID":"51988","TLE_LINE1":"1 51988U 22025AJ  22221.91667824 -.00042971  00000-0 -26987-2 0  9993"},{"EPOCH":"2022-08-09T22:00:00.999936","TLE_LINE1":"1 51989U 22025AK  22221.91667824 -.00013619  00000-0 -83953-3 0  9998","NORAD_CAT_ID":"51989","TLE_LINE2":"2 51989  53.2173 149.9409 0002044  60.8795 209.1710 15.08824382 24733","LAUNCH_DATE":"2022-03-09","ELEMENT_SET_NO":"999","SEMIMAJOR_AXIS":"6917.928","MEAN_MOTION":"15.08824382","MEAN_ELEMENT_THEORY":"SGP4","OBJECT_NAME":"STARLINK-3642","ARG_OF_PERICENTER":"60.8795","TIME_SYSTEM":"UTC","MEAN_MOTION_DOT":"-0.00013619","RCS_SIZE":"LARGE","SITE":"AFETR","INCLINATION":"53.2173","REV_AT_EPOCH":"2473","RA_OF_ASC_NODE":"149.9409","ECCENTRICITY":"0.00020440","CENTER_NAME":"EARTH","COUNTRY_CODE":"US","EPHEMERIS_TYPE":"0","OBJECT_ID":"2022-025AK","CLASSIFICATION_TYPE":"U","GP_ID":"209902878","FILE":"3532931","OBJECT_TYPE":"PAYLOAD","DECAY_DATE":null,"PERIOD":"95.439","MEAN_ANOMALY":"209.1710","BSTAR":"-0.00083953000000","MEAN_MOTION_DDOT":"0.0000000000000","REF_FRAME":"TEME","APOAPSIS":"541.207","PERIAPSIS":"538.379"},{"CLASSIFICATION_TYPE":"U","GP_ID":"209902686","COUNTRY_CODE":"US","OBJECT_ID":"2022-025AL","EPHEMERIS_TYPE":"0","FILE":"3532931","RA_OF_ASC_NODE":"129.9382","ECCENTRICITY":"0.00014380","CENTER_NAME":"EARTH","MEAN_MOTION_DDOT":"0.0000000000000","MEAN_ANOMALY":"353.5424","BSTAR":"-0.00189440000000","PERIAPSIS":"538.796","REF_FRAME":"TEME","APOAPSIS":"540.785","DECAY_DATE":null,"OBJECT_TYPE":"PAYLOAD","PERIOD":"95.438","SEMIMAJOR_AXIS":"6917.925","ARG_OF_PERICENTER":"86.5210","MEAN_ELEMENT_THEORY":"SGP4","MEAN_MOTION":"15.08825250","OBJECT_NAME":"STARLINK-3657","EPOCH":"2022-08-09T22:00:00.999936","NORAD_CAT_ID":"51990","TLE_LINE1":"1 51990U 22025AL  22221.91667824 -.00030299  00000-0 -18944-2 0  9990","TLE_LINE2":"2 51990  53.2166 129.9382 0001438  86.5210 353.5424 15.08825250 25011","LAUNCH_DATE":"2022-03-09","ELEMENT_SET_NO":"999","SITE":"AFETR","RCS_SIZE":"LARGE","REV_AT_EPOCH":"2501","INCLINATION":"53.2166","MEAN_MOTION_DOT":"-0.00030299","TIME_SYSTEM":"UTC"},{"RA_OF_ASC_NODE":"149.9432","CENTER_NAME":"EARTH","ECCENTRICITY":"0.00022530","EPHEMERIS_TYPE":"0","COUNTRY_CODE":"US","OBJECT_ID":"2022-025AM","CLASSIFICATION_TYPE":"U","GP_ID":"209902683","FILE":"3532931","OBJECT_TYPE":"PAYLOAD","DECAY_DATE":null,"PERIOD":"95.439","BSTAR":"-0.00085983000000","MEAN_ANOMALY":"251.5607","MEAN_MOTION_DDOT":"0.0000000000000","APOAPSIS":"541.366","REF_FRAME":"TEME","PERIAPSIS":"538.249","TLE_LINE1":"1 51991U 22025AM  22221.91667824 -.00013939  00000-0 -85983-3 0  9991","NORAD_CAT_ID":"51991","EPOCH":"2022-08-09T22:00:00.999936","ELEMENT_SET_NO":"999","LAUNCH_DATE":"2022-03-09","TLE_LINE2":"2 51991  53.2176 149.9432 0002253  58.4877 251.5607 15.08819776 24727","SEMIMAJOR_AXIS":"6917.942","OBJECT_NAME":"STARLINK-3652","MEAN_ELEMENT_THEORY":"SGP4","MEAN_MOTION":"15.08819776","ARG_OF_PERICENTER":"58.4877","TIME_SYSTEM":"UTC","MEAN_MOTION_DOT":"-0.00013939","RCS_SIZE":"LARGE","SITE":"AFETR","REV_AT_EPOCH":"2472","INCLINATION":"53.2176"},{"RCS_SIZE":"LARGE","SITE":"AFETR","INCLINATION":"53.2168","REV_AT_EPOCH":"130","TIME_SYSTEM":"UTC","MEAN_MOTION_DOT":"-0.00021031","SEMIMAJOR_AXIS":"6917.918","OBJECT_NAME":"STARLINK-3643","MEAN_ELEMENT_THEORY":"SGP4","MEAN_MOTION":"15.08827750","ARG_OF_PERICENTER":"61.1165","TLE_LINE1":"1 51992U 22025AN  22221.91667824 -.00021031  00000-0 -13076-2 0  9997","NORAD_CAT_ID":"51992","EPOCH":"2022-08-09T22:00:00.999936","ELEMENT_SET_NO":"999","LAUNCH_DATE":"2022-03-09","TLE_LINE2":"2 51992  53.2168 129.9460 0001731  61.1165  78.9392 15.08827750  1301","BSTAR":"-0.00130760000000","MEAN_ANOMALY":"78.9392","MEAN_MOTION_DDOT":"0.0000000000000","APOAPSIS":"540.980","REF_FRAME":"TEME","PERIAPSIS":"538.585","OBJECT_TYPE":"PAYLOAD","DECAY_DATE":null,"PERIOD":"95.438","OBJECT_ID":"2022-025AN","COUNTRY_CODE":"US","EPHEMERIS_TYPE":"0","GP_ID":"209930890","CLASSIFICATION_TYPE":"U","FILE":"3533123","RA_OF_ASC_NODE":"129.9460","CENTER_NAME":"EARTH","ECCENTRICITY":"0.00017310"},{"RA_OF_ASC_NODE":"149.9470","ECCENTRICITY":"0.00020340","CENTER_NAME":"EARTH","COUNTRY_CODE":"US","EPHEMERIS_TYPE":"0","OBJECT_ID":"2022-025AP","CLASSIFICATION_TYPE":"U","GP_ID":"209902891","FILE":"3532932","OBJECT_TYPE":"PAYLOAD","DECAY_DATE":null,"PERIOD":"95.438","MEAN_ANOMALY":"298.0461","BSTAR":"-0.00362700000000","MEAN_MOTION_DDOT":"0.0000000000000","REF_FRAME":"TEME","APOAPSIS":"541.158","PERIAPSIS":"538.344","EPOCH":"2022-08-09T22:00:00.999936","NORAD_CAT_ID":"51993","TLE_LINE1":"1 51993U 22025AP  22221.91667824 -.00057550  00000-0 -36270-2 0  9994","TLE_LINE2":"2 51993  53.2198 149.9470 0002034  71.9991 298.0461 15.08838222 24742","ELEMENT_SET_NO":"999","LAUNCH_DATE":"2022-03-09","SEMIMAJOR_AXIS":"6917.886","MEAN_MOTION":"15.08838222","MEAN_ELEMENT_THEORY":"SGP4","OBJECT_NAME":"STARLINK-3648","ARG_OF_PERICENTER":"71.9991","TIME_SYSTEM":"UTC","MEAN_MOTION_DOT":"-0.00057550","RCS_SIZE":"LARGE","SITE":"AFETR","REV_AT_EPOCH":"2474","INCLINATION":"53.2198"},{"SEMIMAJOR_AXIS":"6917.958","ARG_OF_PERICENTER":"64.4545","OBJECT_NAME":"STARLINK-3647","MEAN_MOTION":"15.08814503","MEAN_ELEMENT_THEORY":"SGP4","TLE_LINE1":"1 51994U 22025AQ  22221.91667824 -.00019801  00000-0 -12303-2 0  9993","NORAD_CAT_ID":"51994","EPOCH":"2022-08-09T22:00:00.999936","ELEMENT_SET_NO":"999","LAUNCH_DATE":"2022-03-09","TLE_LINE2":"2 51994  53.2167 129.9461 0001781  64.4545  95.5923 15.08814503  1303","SITE":"AFETR","RCS_SIZE":"LARGE","REV_AT_EPOCH":"130","INCLINATION":"53.2167","MEAN_MOTION_DOT":"-0.00019801","TIME_SYSTEM":"UTC","GP_ID":"209930389","CLASSIFICATION_TYPE":"U","COUNTRY_CODE":"US","OBJECT_ID":"2022-025AQ","EPHEMERIS_TYPE":"0","FILE":"3533123","RA_OF_ASC_NODE":"129.9461","CENTER_NAME":"EARTH","ECCENTRICITY":"0.00017810","MEAN_MOTION_DDOT":"0.0000000000000","BSTAR":"-0.00123030000000","MEAN_ANOMALY":"95.5923","PERIAPSIS":"538.591","APOAPSIS":"541.055","REF_FRAME":"TEME","DECAY_DATE":null,"OBJECT_TYPE":"PAYLOAD","PERIOD":"95.439"}];
